NORAD_CAT_ID,OBJECT_NAME,OBJECT_TYPE,EPOCH,MEAN_MOTION,ECCENTRICITY,INCLINATION,RA_OF_ASC_NODE,ARG_OF_PERICENTER,MEAN_ANOMALY,BSTAR,MEAN_MOTION_DOT,MEAN_MOTION_DDOT,TLE_LINE0,TLE_LINE1,TLE_LINE2,SEMIMAJOR_AXIS,PERIOD,APOGEE,PERIGEE,DECAYED
55630.0,STARLINK-5303,PAYLOAD,2024-04-08 11:46:21,14.98354089,0.0003117,70.0001,169.9706,270.1019,89.9783,0.00033867,3.953e-05,0.0,0 STARLINK-5303,1 55630U 23021C   24099.49052095  .00003953  00000-0  33867-3 0  9995,2 55630  70.0001 169.9706 0003117 270.1019  89.9783 14.98354089 63115,6950.118,96.105,574.15,569.817,0.0
55630.0,STARLINK-5303,PAYLOAD,2024-04-08 21:23:09,14.98350589,0.0003498,70.0,168.9607,273.2522,86.8237,0.00029302,3.407e-05,0.0,0 STARLINK-5303,1 55630U 23021C   24099.89107993  .00003407  00000-0  29302-3 0  9990,2 55630  70.0000 168.9607 0003498 273.2522  86.8237 14.98350589 63478,6950.129,96.106,574.425,569.563,0.0
55630.0,STARLINK-5303,PAYLOAD,2024-04-09 05:23:50,14.98337165,0.0002389,70.0041,168.1206,270.2577,89.8309,0.00011716,1.306e-05,0.0,0 STARLINK-5303,1 55630U 23021C   24100.22489385  .00001306  00000-0  11716-3 0  9994,2 55630  70.0041 168.1206 0002389 270.2577  89.8309 14.98337165 63226,6950.171,96.107,573.696,570.375,0.0
55630.0,STARLINK-5303,PAYLOAD,2024-04-09 10:12:15,14.98325807,0.0002923,70.0006,167.6146,270.3413,89.7411,4.0968e-05,3.96e-06,0.0,0 STARLINK-5303,1 55630U 23021C   24100.42518194  .00000396  00000-0  40968-4 0  9997,2 55630  70.0006 167.6146 0002923 270.3413  89.7411 14.98325807 63254,6950.206,96.107,574.102,570.039,0.0
55630.0,STARLINK-5303,PAYLOAD,2024-04-09 21:25:12,14.98332815,0.0002863,70.0006,166.436,273.1506,86.9325,-7.7472e-05,-1.017e-05,0.0,0 STARLINK-5303,1 55630U 23021C   24100.89250011 -.00001017  00000-0 -77472-4 0  9992,2 55630  70.0006 166.4360 0002863 273.1506  86.9325 14.98332815 63627,6950.184,96.107,574.039,570.059,0.0
55630.0,STARLINK-5303,PAYLOAD,2024-04-10 10:14:16,14.98335908,0.0002803,70.0008,165.0898,268.0399,92.0439,8.1556e-06,4e-08,0.0,0 STARLINK-5303,1 55630U 23021C   24101.42657576  .00000004  00000-0  81556-5 0  9991,2 55630  70.0008 165.0898 0002803 268.0399  92.0439 14.98335908 63403,6950.175,96.107,573.988,570.091,0.0
55630.0,STARLINK-5303,PAYLOAD,2024-04-10 21:27:12,14.9834557,0.0003163,70.0004,163.9116,270.2282,89.8515,-0.00032212,-3.936e-05,0.0,0 STARLINK-5303,1 55630U 23021C   24101.89389353 -.00003936  00000-0 -32212-3 0  9999,2 55630  70.0004 163.9116 0003163 270.2282  89.8515 14.98345570 63770,6950.145,96.106,574.208,569.811,0.0
55630.0,STARLINK-5303,PAYLOAD,2024-04-11 05:27:53,14.98325405,0.0003066,70.0002,163.0705,272.6511,87.4297,6.4312e-05,6.74e-06,0.0,0 STARLINK-5303,1 55630U 23021C   24102.22769922  .00000674  00000-0  64312-4 0  9992,2 55630  70.0002 163.0705 0003066 272.6511  87.4297 14.98325405 63525,6950.207,96.107,574.203,569.941,0.0
55630.0,STARLINK-5303,PAYLOAD,2024-04-11 13:28:33,14.9834545,0.0002962,70.0,162.2282,268.3523,91.7296,-0.00026646,-3.272e-05,0.0,0 STARLINK-5303,1 55630U 23021C   24102.56149306 -.00003272  00000-0 -26646-3 0  9993,2 55630  70.0000 162.2282 0002962 268.3523  91.7296 14.98345450 63870,6950.145,96.106,574.069,569.951,0.0
55630.0,STARLINK-5303,PAYLOAD,2024-04-11 21:29:13,14.98326672,0.0003169,70.0,161.3872,271.9386,88.141,5.1214e-05,5.18e-06,0.0,0 STARLINK-5303,1 55630U 23021C   24102.89530036  .00000518  00000-0  51214-4 0  9991,2 55630  70.0000 161.3872 0003169 271.9386  88.1410 14.98326672 63921,6950.203,96.107,574.271,569.866,0.0
55630.0,STARLINK-5303,PAYLOAD,2024-04-12 05:29:54,14.98328371,0.0003174,70.0,160.5457,271.9293,88.1502,6.8471e-05,7.24e-06,0.0,0 STARLINK-5303,1 55630U 23021C   24103.22909965  .00000724  00000-0  68471-4 0  9992,2 55630  70.0000 160.5457 0003174 271.9293  88.1502 14.98328371 63676,6950.198,96.107,574.269,569.857,0.0
55630.0,STARLINK-5303,PAYLOAD,2024-04-12 13:30:34,14.98331175,0.0003178,70.0,159.7041,271.8104,88.2691,7.4781e-05,7.99e-06,0.0,0 STARLINK-5303,1 55630U 23021C   24103.56289821  .00000799  00000-0  74781-4 0  9994,2 55630  70.0000 159.7041 0003178 271.8104  88.2691 14.98331175 64025,6950.189,96.107,574.263,569.845,0.0
55630.0,STARLINK-5303,PAYLOAD,2024-04-13 05:31:54,14.98330899,0.0003214,69.9998,158.0208,271.2034,88.8757,0.00011965,1.335e-05,0.0,0 STARLINK-5303,1 55630U 23021C   24104.23049737  .00001335  00000-0  11965-3 0  9990,2 55630  69.9998 158.0208 0003214 271.2034  88.8757 14.98330899 63820,6950.19,96.107,574.289,569.821,0.0
55630.0,STARLINK-5303,PAYLOAD,2024-04-13 13:32:35,14.98335264,0.0003191,69.9998,157.1789,270.5931,89.4862,0.00014161,1.597e-05,0.0,0 STARLINK-5303,1 55630U 23021C   24104.56429423  .00001597  00000-0  14161-3 0  9991,2 55630  69.9998 157.1789 0003191 270.5931  89.4862 14.98335264 64170,6950.177,96.107,574.259,569.824,0.0
55630.0,STARLINK-5303,PAYLOAD,2024-04-14 11:58:28,14.98328522,0.0002948,70.0004,154.8237,262.0198,98.0626,3.6379e-05,3.41e-06,0.0,0 STARLINK-5303,1 55630U 23021C   24105.49894126  .00000341  00000-0  36379-4 0  9992,2 55630  70.0004 154.8237 0002948 262.0198  98.0626 14.98328522 64019,6950.197,96.107,574.111,570.014,0.0
55630.0,STARLINK-5303,PAYLOAD,2024-04-14 13:34:36,14.98329024,0.000295,70.0004,154.6555,262.5993,97.4831,4.013e-05,3.86e-06,0.0,0 STARLINK-5303,1 55630U 23021C   24105.56570089  .00000386  00000-0  40130-4 0  9998,2 55630  70.0004 154.6555 0002950 262.5993  97.4831 14.98329024 64324,6950.196,96.107,574.111,570.011,0.0
55630.0,STARLINK-5303,PAYLOAD,2024-04-15 03:59:48,14.98336691,0.0003001,70.0001,153.1399,268.078,92.0035,7.2804e-05,7.76e-06,0.0,0 STARLINK-5303,1 55630U 23021C   24106.16653480  .00000776  00000-0  72804-4 0  9998,2 55630  70.0001 153.1399 0003001 268.0780  92.0035 14.98336691 64116,6950.172,96.107,574.123,569.951,0.0
55630.0,STARLINK-5303,PAYLOAD,2024-04-15 13:36:36,14.98333743,0.0002474,69.9999,152.1302,263.1483,96.9394,0.00018483,2.113e-05,0.0,0 STARLINK-5303,1 55630U 23021C   24106.56709428  .00002113  00000-0  18483-3 0  9995,2 55630  69.9999 152.1302 0002474 263.1483  96.9394 14.98333743 64476,6950.181,96.107,573.766,570.327,0.0
55630.0,STARLINK-5303,PAYLOAD,2024-04-15 20:01:09,14.98326048,0.0002668,70.0008,151.4573,259.8941,100.1918,0.0001899,2.173e-05,0.0,0 STARLINK-5303,1 55630U 23021C   24106.83413904  .00002173  00000-0  18990-3 0  9995,2 55630  70.0008 151.4573 0002668 259.8941 100.1918 14.98326048 64210,6950.205,96.107,573.924,570.216,0.0
55630.0,STARLINK-5303,PAYLOAD,2024-04-16 12:02:30,14.98331853,0.0002938,70.0001,149.7736,268.4542,91.628,0.00011678,1.301e-05,0.0,0 STARLINK-5303,1 55630U 23021C   24107.50173661  .00001301  00000-0  11678-3 0  9991,2 55630  70.0001 149.7736 0002938 268.4542  91.6280 14.98331853 64617,6950.187,96.107,574.094,570.01,0.0
55630.0,STARLINK-5303,PAYLOAD,2024-04-17 05:39:58,14.98338017,0.000289,70.0,147.9222,267.8056,92.2773,9.9645e-05,1.096e-05,0.0,0 STARLINK-5303,1 55630U 23021C   24108.23609194  .00001096  00000-0  99645-4 0  9999,2 55630  70.0000 147.9222 0002890 267.8056  92.2773 14.98338017 64428,6950.168,96.106,574.042,570.025,0.0
55630.0,STARLINK-5303,PAYLOAD,2024-04-17 12:04:30,14.98338847,0.0002873,70.0,147.2489,267.7333,92.3497,0.00010432,1.152e-05,0.0,0 STARLINK-5303,1 55630U 23021C   24108.50313001  .00001152  00000-0  10432-3 0  9997,2 55630  70.0000 147.2489 0002873 267.7333  92.3497 14.98338847 64766,6950.166,96.106,574.027,570.034,0.0
55630.0,STARLINK-5303,PAYLOAD,2024-04-18 04:05:52,14.98323889,0.0002712,70.0003,145.5668,252.9011,107.1851,1.9332e-06,-7e-07,0.0,0 STARLINK-5303,1 55630U 23021C   24109.17074158 -.00000070  00000-0  19332-5 0  9997,2 55630  70.0003 145.5668 0002712 252.9011 107.1851 14.98323889 64567,6950.212,96.107,573.962,570.192,0.0
55630.0,STARLINK-5303,PAYLOAD,2024-04-18 12:06:33,14.98315413,0.0002715,70.0,144.7242,256.108,103.9777,-3.5239e-05,-5.13e-06,0.0,0 STARLINK-5303,1 55630U 23021C   24109.50454925 -.00000513  00000-0 -35239-4 0  9994,2 55630  70.0000 144.7242 0002715 256.1080 103.9777 14.98315413 64619,6950.238,96.108,573.99,570.216,0.0
55630.0,STARLINK-5303,PAYLOAD,2024-04-19 04:07:52,14.98330225,0.000327,69.9986,143.0397,268.6491,91.4293,2.8281e-05,2.44e-06,0.0,0 STARLINK-5303,1 55630U 23021C   24110.17213976  .00000244  00000-0  28281-4 0  9996,2 55630  69.9986 143.0397 0003270 268.6491  91.4293 14.98330225 64716,6950.192,96.107,574.33,569.784,0.0
55630.0,STARLINK-5303,PAYLOAD,2024-04-19 12:08:32,14.98335993,0.0003108,69.9991,142.1989,265.6336,94.4468,9.0161e-05,9.83e-06,0.0,0 STARLINK-5303,1 55630U 23021C   24110.50593511  .00000983  00000-0  90161-4 0  9995,2 55630  69.9991 142.1989 0003108 265.6336  94.4468 14.98335993 65067,6950.174,96.107,574.199,569.879,0.0
55630.0,STARLINK-5303,PAYLOAD,2024-04-20 04:09:52,14.98337179,0.0003261,69.9988,140.5148,267.7601,92.3184,0.00028768,3.342e-05,0.0,0 STARLINK-5303,1 55630U 23021C   24111.17352955  .00003342  00000-0  28768-3 0  9999,2 55630  69.9988 140.5148 0003261 267.7601  92.3184 14.98337179 64867,6950.171,96.107,574.302,569.769,0.0
55630.0,STARLINK-5303,PAYLOAD,2024-04-20 12:10:33,14.9834887,0.0003164,70.0001,139.6735,266.5648,93.5149,0.00050356,5.923e-05,0.0,0 STARLINK-5303,1 55630U 23021C   24111.50732744  .00005923  00000-0  50356-3 0  9999,2 55630  70.0001 139.6735 0003164 266.5648  93.5149 14.98348870 65211,6950.135,96.106,574.199,569.801,0.0
55630.0,STARLINK-5303,PAYLOAD,2024-04-21 04:11:54,14.98324542,0.0002653,70.0036,137.9982,240.097,119.9926,-0.00018717,-2.325e-05,0.0,0 STARLINK-5303,1 55630U 23021C   24112.17493889 -.00002325  00000-0 -18717-3 0  9997,2 55630  70.0036 137.9982 0002653 240.0970 119.9926 14.98324542 65015,6950.21,96.107,573.919,570.231,0.0
55630.0,STARLINK-5303,PAYLOAD,2024-04-21 12:12:35,14.98317145,0.0003347,69.9999,137.1487,270.3226,89.7549,-0.00030672,-3.75e-05,0.0,0 STARLINK-5303,1 55630U 23021C   24112.50874394 -.00003750  00000-0 -30672-3 0  9995,2 55630  69.9999 137.1487 0003347 270.3226  89.7549 14.98317145 65367,6950.233,96.108,574.424,569.771,0.0
